# From MPEC 2025-R69
C/1901 G1 (Greatcomet),e,127.4852,109.6258,201.8070,1521,0.0000166,0.99985761,0.0000,05/16.4511/1901,2000,g  1.7,4.0
# From AMAF 23a (11)
C/1917 F1 (Mellish),e,32.3875,88.7444,121.3405,27.56499,0.0068103,0.99277413,0.0000,06/21.9079/2061,2000,g  9.0,4.0
# From NK 1615
P/1996 R2 (Lagerkvist),e,2.5990,40.0410,333.5022,3.772149,0.1345305,0.31418177,324.7905,09/27.0/2025,2000,g 11.5,4.0
# From MPC 75703
P/1998 VS24 (LINEAR),e,5.0297,159.0358,244.9149,4.520063,0.1025622,0.24352484,287.0760,09/27.0/2025,2000,g 13.0,2.0
# From MPC186628
C/1999 J2 (Skiff),h,04/08.3766/2000,86.4094,50.3042,126.9897,1.000799,7.077595,2000,2.0,4.0
# From NK 731
P/1999 RO28 (LONEOS),e,7.5672,137.8408,231.3554,3.424903,0.1555004,0.67215572,354.8213,09/27.0/2025,2000,g 20.0,2.0
# From MPC 75704
P/1999 XN120 (Catalina),e,5.0300,285.2382,161.5407,4.186330,0.1150678,0.21218974,350.1882,09/27.0/2025,2000,g 13.5,2.0
# From MPEC 2025-R69
C/2000 A1 (Montani),e,24.6126,111.7107,14.2533,15160,0.0000005,0.99936144,0.0000,07/19.7283/2000,2000,g  3.5,4.0
# From NK 744
P/2000 R2 (LINEAR),e,11.6790,160.2687,176.5831,3.468679,0.1525661,0.53059298,349.8850,09/27.0/2025,2000,g 18.0,4.0
# From MPC 43019
P/2001 H5 (NEAT),e,8.3725,328.6809,224.5781,6.093977,0.0655168,0.59941706,238.7293,09/27.0/2025,2000,g 12.0,4.0
# From MPC186628
C/2001 K5 (LINEAR),h,09/30.8939/2002,72.2798,237.4242,47.2344,1.000595,5.212998,2000,4.0,4.0
# From MPEC 2025-R69
C/2002 CE10 (LINEAR),e,145.3829,147.5505,126.2227,9.766472,0.0322922,0.78926656,262.4380,09/27.0/2025,2000,g 13.0,2.0
# From MPEC 2023-UR6
P/2002 EJ57 (LINEAR),e,4.9902,330.2229,167.2873,6.454807,0.0601007,0.59406563,159.5748,09/27.0/2025,2000,g 12.5,4.0
# From MPC186628
C/2002 J4 (NEAT),h,09/23.0465/2003,46.2276,70.7705,231.0717,1.001401,3.679738,2000,5.5,4.0
# From MPC 75007
C/2002 VQ94 (LINEAR),e,70.6404,35.0777,99.8057,187.1156,0.0003851,0.96391542,2.7597,09/27.0/2025,2000,g  9.5,2.0
# From MPC186628
C/2003 A2 (Gleason),e,8.0707,154.4811,346.4994,6480,0.0000019,0.99824695,0.0000,11/06.8355/2003,2000,g  3.5,4.0
# From MPC 50354
P/2003 F2 (NEAT),e,11.6138,358.9452,193.0425,6.547904,0.0588235,0.53746653,126.2071,09/27.0/2025,2000,g 16.5,2.0
# From MPC105235
P/2003 T12 (SOHO),e,11.0220,174.5736,219.7988,2.584171,0.2372588,0.77011651,106.8355,09/27.0/2025,2000,g 17.0,4.0
# From MPEC 2022-YN2
P/2004 FY140 (LINEAR),e,2.1628,327.2621,254.2821,4.968701,0.0889897,0.19282937,314.3217,09/27.0/2025,2000,g 12.5,2.0
# From MPC 53304
P/2004 R3 (LINEAR-NEAT),e,12.8035,305.1216,37.1352,4.746139,0.0953221,0.25463980,140.3953,09/27.0/2025,2000,g 14.5,4.0
# From MPC 75705
P/2004 V5 (LINEAR-Hill),e,19.3339,47.7393,87.1691,8.048450,0.0431654,0.44912978,330.7408,09/27.0/2025,2000,g  8.0,4.0
# From MPC 75705
P/2004 V5-B (LINEAR-Hill),e,19.3340,47.7396,87.1735,8.048687,0.0431635,0.44914588,330.7001,09/27.0/2025,2000,g  8.0,4.0
# From MPC 54164
P/2005 E1 (Tubbiolo),e,4.2606,335.4904,193.9412,7.071683,0.0524107,0.37743142,38.2460,09/27.0/2025,2000,g 10.0,4.0
# From MPC 74246
P/2005 L1 (McNaught),e,9.2352,125.5130,162.8936,3.890310,0.1284481,0.26584409,172.3192,09/27.0/2025,2000,g  9.5,4.0
# From MPC 75706
P/2005 S2 (Skiff),e,3.1389,161.3297,230.0484,7.982691,0.0436999,0.19835475,306.7864,09/27.0/2025,2000,g  7.5,4.0
# From MPC 73461
P/2005 T3 (Read),e,6.2328,27.6202,7.1374,7.571067,0.0473117,0.17403235,344.5052,09/27.0/2025,2000,g  9.0,4.0
# From MPC 73461
P/2005 T4 (SWAN),e,160.2415,25.7961,41.7719,9.351775,0.0344638,0.93081213,250.9438,09/27.0/2025,2000,g 15.0,4.0
# From MPC 75706
P/2005 T5 (Broughton),e,21.3839,57.0611,304.7882,7.257067,0.0504153,0.55166935,5.2445,09/27.0/2025,2000,g 11.0,4.0
# From MPC 75707
P/2006 HR30 (Siding Spring),e,31.9624,309.7503,117.5232,7.795201,0.0452859,0.84358461,309.8070,09/27.0/2025,2000,g 11.0,4.0
# From MPC 84315
C/2007 D1 (LINEAR),e,41.5158,171.0126,339.7772,1265,0.0000219,0.99309159,0.0000,06/15.1344/2007,2000,g  3.5,4.0
# From MPEC 2024-GJ3
P/2007 K2 (Gibbs),e,7.5903,188.3657,347.0608,7.388616,0.0490749,0.68671784,336.1368,09/27.0/2025,2000,g 14.0,4.0
# From MPC 60925
P/2007 Q2 (Gilmore),e,10.1924,172.2303,162.8378,5.660893,0.0731773,0.66866145,129.3358,09/27.0/2025,2000,g 16.0,4.0
# From MPC185655
C/2007 Q3 (Siding Spring),e,65.8127,149.2866,1.9943,4294,0.0000035,0.99947893,0.0000,10/04.3214/2009,2000,g  4.5,4.0
# From MPC 73462
P/2007 S1 (Zhao),e,5.9628,141.3240,245.2828,3.818888,0.1320683,0.33780676,143.5210,09/27.0/2025,2000,g 13.0,4.0
# From MPEC 2024-GJ3
C/2007 S2 (Lemmon),e,16.9195,296.1333,210.1431,12.49289,0.0223208,0.55723265,139.0510,09/27.0/2025,2000,g  6.5,4.0
# From MPC 61994
P/2007 T2 (Kowalski),e,9.7469,3.3946,359.6656,3.043522,0.1856262,0.78539889,126.1449,09/27.0/2025,2000,g 18.5,4.0
# From MPEC 2024-GJ3
C/2008 E1 (Catalina),e,34.8639,188.9009,270.3909,10.76336,0.0279114,0.55296587,174.2471,09/27.0/2025,2000,g  7.0,4.0
# From MPC 64114
P/2008 O3 (Boattini),e,32.3035,47.6065,341.2028,8.208573,0.0419085,0.69603504,264.4875,09/27.0/2025,2000,g 13.0,4.0
# From MPC 75710
P/2008 Y3 (McNaught),e,38.7794,262.8352,238.1571,8.035641,0.0432686,0.44843330,264.8186,09/27.0/2025,2000,g  8.5,4.0
# From MPC 75710
P/2009 B1 (Boattini),e,22.2598,297.1094,129.0157,6.723485,0.0565344,0.63587811,344.3701,09/27.0/2025,2000,g 13.0,4.0
# From MPC 66466
C/2009 G1 (STEREO),e,107.9903,120.8951,175.4941,447.9523,0.0001040,0.99746841,0.0000,04/16.9201/2009,2000,g  9.0,4.0
# From MPC 75710
P/2009 O3 (Hill),e,16.2473,183.7169,154.4066,7.773710,0.0454738,0.68598812,271.4563,09/27.0/2025,2000,g 12.5,4.0
# From MPC 68902
P/2009 Q5 (McNaught),e,40.9505,160.1938,209.2065,7.426355,0.0487013,0.60921410,284.8345,09/27.0/2025,2000,g 10.0,4.0
# From MPC112389
P/2009 T2 (La Sagra),e,27.5943,216.2986,216.0254,7.707107,0.0460646,0.76747209,264.0236,09/27.0/2025,2000,g 14.0,4.0
# From MPC105235
P/2009 WX51 (Catalina),e,9.5983,31.5217,118.2959,3.082545,0.1821125,0.73972108,323.5669,09/27.0/2025,2000,g 19.0,2.0
# From MPC 74247
P/2009 Y2 (Kowalski),e,29.9727,262.0812,172.2596,6.536278,0.0589805,0.63735853,334.5928,09/27.0/2025,2000,g 13.0,4.0
# From MPC185655
C/2010 B1 (Cardinal),e,102.2607,277.2233,211.6143,2654,0.0000072,0.99888785,0.0000,02/03.9473/2011,2000,g  7.5,4.0
# From MPC 75008
P/2010 C1 (Scotti),e,9.1157,141.5862,2.8867,7.131678,0.0517507,0.26418787,303.5836,09/27.0/2025,2000,g  9.5,4.0
# From MPC 75008
P/2010 D2 (WISE),e,57.1381,319.8783,120.0360,6.715137,0.0566398,0.45164351,323.1502,09/27.0/2025,2000,g 16.0,4.0
# From MPC 75009
P/2010 E2 (Jarnac),e,15.4326,177.8342,8.2052,8.634213,0.0388481,0.72114878,220.3679,09/27.0/2025,2000,g 14.0,4.0
# From MPC 72851
P/2010 H2 (Vales),e,14.2788,64.1893,128.0573,3.834708,0.1312519,0.19786293,26.4207,09/27.0/2025,2000,g  6.0,4.0
# From MPC 70361
P/2010 H3 (SOHO),e,23.1450,77.1769,26.0791,3.034952,0.1864130,0.98558102,0.0000,05/25.2421/2026,2000,g 20.0,2.0
# From MPEC 2024-GJ3
P/2010 H4 (Scotti),e,2.3178,44.7480,179.0739,6.619097,0.0578770,0.26726010,325.1866,09/27.0/2025,2000,g 10.5,4.0
# From MPC 74637
P/2010 H5 (Scotti),e,14.0518,24.4604,175.1235,7.170168,0.0513346,0.15584986,291.5118,09/27.0/2025,2000,g 13.0,2.0
# From MPC 98558
P/2010 J3 (McMillan),e,13.2247,106.5420,157.4025,8.988475,0.0365742,0.72418479,202.2961,09/27.0/2025,2000,g 11.0,4.0
# From MPC 84315
P/2010 JC81 (WISE),e,38.7548,30.8429,12.5157,8.102809,0.0427317,0.77798658,224.6756,09/27.0/2025,2000,g  9.0,4.0
# From MPEC 2024-H77
A/2010 LN135,e,64.4082,184.8793,181.5755,41155,0.0000001,0.99995751,0.0000,05/24.8039/2011,2000,g 14.0,2.0
# From MPC 74248
P/2010 T2 (PANSTARRS),e,7.8552,57.7567,350.0141,5.577809,0.0748184,0.32498757,43.6164,09/27.0/2025,2000,g 11.5,4.0
# From MPEC 2023-J95
C/2010 U3 (Boattini),e,55.5387,42.9935,88.0958,216121,0.0000000,0.99996095,0.0000,02/28.4609/2019,2000,g  1.0,4.0
# From MPC 79021
P/2010 UH55 (Spacewatch),e,8.0372,232.8117,225.3440,6.646795,0.0575156,0.56470434,303.6726,09/27.0/2025,2000,g 11.0,4.0
# From MPC 84021
P/2011 C2 (Gibbs),e,10.8968,11.9638,160.2914,7.407679,0.0488856,0.27142333,246.5682,09/27.0/2025,2000,g  9.0,4.0
# From MPC 79866
P/2011 FR143 (Lemmon),e,15.9615,190.8443,349.6223,6.884651,0.0545609,0.45276605,293.2826,09/27.0/2025,2000,g 14.0,2.0
# From MPC 82317
P/2011 JB15 (Spacewatch-Boattini),e,19.1257,153.5858,110.6506,7.381500,0.0491459,0.31493023,247.1499,09/27.0/2025,2000,g  9.0,4.0
# From MPC 87913
P/2011 N1 (ASH),e,35.7849,77.6275,330.5095,6.232495,0.0633448,0.54540089,307.7382,09/27.0/2025,2000,g 11.5,4.0
# From MPEC 2022-ED3
P/2011 P1 (McNaught),e,5.6509,4.2507,349.1620,7.462549,0.0483474,0.32618836,267.5660,09/27.0/2025,2000,g  9.0,4.0
# From MPEC 2022-HC2
P/2011 S1 (Gibbs),e,2.6881,218.8977,192.9980,8.598324,0.0390916,0.20075751,158.3747,09/27.0/2025,2000,g  8.0,4.0
# From MPEC 2023-UR6
P/2011 V1 (Boattini),e,7.3826,46.4917,269.5988,3.857819,0.1300743,0.54836242,332.8746,09/27.0/2025,2000,g 15.5,4.0
# From MPC 82718
P/2011 W1 (PANSTARRS),e,3.7159,161.8001,283.0690,4.674984,0.0975066,0.28841064,129.2374,09/27.0/2025,2000,g 11.5,4.0
# From MPC 79342
P/2011 Y2 (Boattini),e,6.3927,309.3196,132.0844,6.227148,0.0634264,0.71119624,313.3672,09/27.0/2025,2000,g 15.0,4.0
# From MPEC 2022-K19
P/2012 B1 (PANSTARRS),e,7.6051,36.2086,161.8839,6.543583,0.0588817,0.41027214,264.4396,09/27.0/2025,2000,g  9.0,4.0
# From MPC 78590
P/2012 C3 (PANSTARRS),e,9.0920,135.3677,344.9542,9.748681,0.0323806,0.63011148,359.9758,10/06.0/2011,2000,g 13.0,4.0
# From MPC 84931
P/2012 F2 (PANSTARRS),e,14.6970,226.9374,33.1623,6.348931,0.0616103,0.54082704,281.8370,09/27.0/2025,2000,g 12.0,4.0
# From MPEC 2022-ED3
P/2012 G1 (PANSTARRS),e,12.1681,283.2347,266.0109,4.162108,0.1160738,0.32970252,211.7052,09/27.0/2025,2000,g 15.0,4.0
# From MPC 80898
P/2012 K3 (Gibbs),e,13.1814,125.8032,172.1270,3.633093,0.1423277,0.42170387,318.4575,09/27.0/2025,2000,g 15.0,4.0
# From MPC184408
C/2012 KA51 (Palomar),e,70.7081,344.8145,94.0119,534.8619,0.0000797,0.99089741,0.0000,11/06.1206/2011,2000,g  8.7,4.0
# From MPC 88326
